0 DELTA 1 DEB
1 07132U 73086CW  13280.46326567  .00000056  00000-0  74025-3 0  6731
2 07132 101.6844 276.5690 0022779 011.8258 157.4076 12.40288432804956
0 DELTA 1 DEB
1 07132U 73086CW  13282.47958789  .00000097  00000-0  10442-2 0  6749
2 07132 101.6843 278.5056 0022734 008.0977 160.2908 12.40288980805203
0 DELTA 1 DEB
1 07132U 73086CW  13286.96466001  .00000090  00000-0  99096-3 0  6766
2 07132 101.6841 282.8133 0022679 359.6819 026.2818 12.40290456805766
0 DELTA 1 DEB
1 07132U 73086CW  13289.49753062  .00000069  00000-0  83773-3 0  6775
2 07132 101.6844 285.2455 0022641 354.9624 175.6068 12.40291342806070
0 DELTA 1 DEB
1 07132U 73086CW  13291.82553422  .00000082  00000-0  92980-3 0  6789
2 07132 101.6848 287.4811 0022608 350.5670 130.2624 12.40291909806366
0 DELTA 1 DEB
1 07132U 73086CW  13293.98177200  .00000095  00000-0  10281-2 0  6792
2 07132 101.6851 289.5517 0022589 346.5816 037.8924 12.40292423806638
